*******************************************************************************
Ephemeris / WWW_USER Mon Mar 10 08:39:43 2025 Pasadena, USA      / Horizons    
*******************************************************************************
Target body name: ASASSN (C/2017 O1)              {source: JPL#21}
Center body name: Earth (399)                     {source: DE441}
Center-site name: Mauna Kea
*******************************************************************************
Start time      : A.D. 2018-Dec-06 03:52:00.0000 UT      
Stop  time      : A.D. 2018-Dec-06 16:33:00.0000 UT      
Step-size       : 1 minutes
*******************************************************************************
Target pole/equ : undefined
Target radii    : undefined                                                    
Center geodetic : 204.5278, 19.8260847, 4.21024   {E-lon(deg),Lat(deg),Alt(km)}
Center cylindric: 204.5278, 6006.35451, 2151.0229 {E-lon(deg),Dxy(km),Dz(km)}
Center pole/equ : ITRF93                          {East-longitude positive}
Center radii    : 6378.137, 6378.137, 6356.752 km {Equator_a, b, pole_c}       
Target primary  : Sun
Vis. interferer : MOON (R_eq= 1737.400) km        {source: DE441}
Rel. light bend : Sun                             {source: DE441}
Rel. lght bnd GM: 1.3271E+11 km^3/s^2                                          
Small-body perts: Yes                             {source: SB441-N16}
Atmos refraction: NO (AIRLESS)
RA format       : HMS
Time format     : CAL 
Calendar mode   : Mixed Julian/Gregorian
RTS-only print  : NO       
EOP file        : eop.250307.p250603                                           
EOP coverage    : DATA-BASED 1962-JAN-20 TO 2025-MAR-07. PREDICTS-> 2025-JUN-02
Units conversion: 1 au= 149597870.700 km, c= 299792.458 km/s, 1 day= 86400.0 s 
Table cut-offs 1: Elevation (-90.0deg=NO ),Airmass (>38.000=NO), Daylight (YES)
Table cut-offs 2: Solar elongation (  0.0,180.0=NO ),Local Hour Angle( 0.0=NO )
Table cut-offs 3: RA/DEC angular rate (     0.0=NO )                           
*******************************************************************************
Initial IAU76/J2000 heliocentric ecliptic osculating elements (au, days, deg.):
  EPOCH=  2458039.5 ! 2017-Oct-13.0000000 (TDB)    RMSW= n.a.                  
   EC= .9964254882304144   QR= 1.498687032290766   TP= 2458041.2851755521      
   OM= 25.80948799039273   W= 20.90785287564418    IN= 39.84841297991522       
  Equivalent ICRF heliocentric cartesian coordinates (au, au/d):
   X= 1.103880574170232E+00  Y= 7.544591652134763E-01  Z= 6.774428678789283E-01
  VX=-1.240653547490291E-02 VY= 4.322571932715848E-03 VZ= 1.488380440184248E-02
Comet physical (GM= km^3/s^2; RAD= km):                                        
   GM= n.a.                RAD= n.a.                                           
   M1=  12.4     M2=  n.a.     k1=  8.75   k2= n.a.     PHCOF= n.a.            
*******************************************************************************
 Date__(UT)__HR:MN     R.A._________(ICRF)_________DEC
******************************************************
$$SOE
 2018-Dec-06 03:52 C   12 45 30.695025 +23 31 06.79166
 2018-Dec-06 03:53 C   12 45 30.713181 +23 31 06.79809
 2018-Dec-06 03:54 C   12 45 30.731338 +23 31 06.80454
 2018-Dec-06 03:55 C   12 45 30.749496 +23 31 06.81100
 2018-Dec-06 03:56 C   12 45 30.767654 +23 31 06.81747
 2018-Dec-06 03:57 C   12 45 30.785814 +23 31 06.82395
 2018-Dec-06 03:58 C   12 45 30.803974 +23 31 06.83045
 2018-Dec-06 03:59 C   12 45 30.822135 +23 31 06.83697
 2018-Dec-06 04:00 C   12 45 30.840297 +23 31 06.84349
 2018-Dec-06 04:01 C   12 45 30.858460 +23 31 06.85003
 2018-Dec-06 04:02 C   12 45 30.876624 +23 31 06.85658
 2018-Dec-06 04:03 C   12 45 30.894789 +23 31 06.86314
 2018-Dec-06 04:04 C   12 45 30.912954 +23 31 06.86972
 2018-Dec-06 04:05 C   12 45 30.931121 +23 31 06.87631
 2018-Dec-06 04:06 C   12 45 30.949288 +23 31 06.88292
 2018-Dec-06 04:07 N   12 45 30.967456 +23 31 06.88953
 2018-Dec-06 04:08 N   12 45 30.985625 +23 31 06.89616
 2018-Dec-06 04:09 N   12 45 31.003794 +23 31 06.90281
 2018-Dec-06 04:10 N   12 45 31.021965 +23 31 06.90947
 2018-Dec-06 04:11 N   12 45 31.040136 +23 31 06.91614
 2018-Dec-06 04:12 N   12 45 31.058308 +23 31 06.92282
 2018-Dec-06 04:13 N   12 45 31.076480 +23 31 06.92952
 2018-Dec-06 04:14 N   12 45 31.094654 +23 31 06.93623
 2018-Dec-06 04:15 N   12 45 31.112828 +23 31 06.94296
 2018-Dec-06 04:16 N   12 45 31.131003 +23 31 06.94970
 2018-Dec-06 04:17 N   12 45 31.149179 +23 31 06.95645
 2018-Dec-06 04:18 N   12 45 31.167355 +23 31 06.96321
 2018-Dec-06 04:19 N   12 45 31.185532 +23 31 06.96999
 2018-Dec-06 04:20 N   12 45 31.203710 +23 31 06.97679
 2018-Dec-06 04:21 N   12 45 31.221888 +23 31 06.98359
 2018-Dec-06 04:22 N   12 45 31.240067 +23 31 06.99041
 2018-Dec-06 04:23 N   12 45 31.258247 +23 31 06.99725
 2018-Dec-06 04:24 N   12 45 31.276428 +23 31 07.00409
 2018-Dec-06 04:25 N   12 45 31.294609 +23 31 07.01096
 2018-Dec-06 04:26 N   12 45 31.312791 +23 31 07.01783
 2018-Dec-06 04:27 N   12 45 31.330973 +23 31 07.02472
 2018-Dec-06 04:28 N   12 45 31.349156 +23 31 07.03162
 2018-Dec-06 04:29 N   12 45 31.367340 +23 31 07.03854
 2018-Dec-06 04:30 N   12 45 31.385524 +23 31 07.04547
 2018-Dec-06 04:31 N   12 45 31.403709 +23 31 07.05242
 2018-Dec-06 04:32 N   12 45 31.421895 +23 31 07.05937
 2018-Dec-06 04:33 N   12 45 31.440081 +23 31 07.06635
 2018-Dec-06 04:34 A   12 45 31.458267 +23 31 07.07333
 2018-Dec-06 04:35 A   12 45 31.476455 +23 31 07.08033
 2018-Dec-06 04:36 A   12 45 31.494643 +23 31 07.08735
 2018-Dec-06 04:37 A   12 45 31.512831 +23 31 07.09438
 2018-Dec-06 04:38 A   12 45 31.531020 +23 31 07.10142
 2018-Dec-06 04:39 A   12 45 31.549209 +23 31 07.10848
 2018-Dec-06 04:40 A   12 45 31.567399 +23 31 07.11555
 2018-Dec-06 04:41 A   12 45 31.585590 +23 31 07.12263
 2018-Dec-06 04:42 A   12 45 31.603781 +23 31 07.12973
 2018-Dec-06 04:43 A   12 45 31.621972 +23 31 07.13685
 2018-Dec-06 04:44 A   12 45 31.640164 +23 31 07.14397
 2018-Dec-06 04:45 A   12 45 31.658357 +23 31 07.15111
 2018-Dec-06 04:46 A   12 45 31.676550 +23 31 07.15827
 2018-Dec-06 04:47 A   12 45 31.694743 +23 31 07.16544
 2018-Dec-06 04:48 A   12 45 31.712937 +23 31 07.17262
 2018-Dec-06 04:49 A   12 45 31.731131 +23 31 07.17982
 2018-Dec-06 04:50 A   12 45 31.749326 +23 31 07.18704
 2018-Dec-06 04:51 A   12 45 31.767521 +23 31 07.19426
 2018-Dec-06 04:52 A   12 45 31.785717 +23 31 07.20150
 2018-Dec-06 04:53 A   12 45 31.803913 +23 31 07.20876
 2018-Dec-06 04:54 A   12 45 31.822110 +23 31 07.21603
 2018-Dec-06 04:55 A   12 45 31.840306 +23 31 07.22331
 2018-Dec-06 04:56 A   12 45 31.858504 +23 31 07.23061
 2018-Dec-06 04:57 A   12 45 31.876701 +23 31 07.23793
 2018-Dec-06 04:58 A   12 45 31.894899 +23 31 07.24525
 2018-Dec-06 04:59 A   12 45 31.913097 +23 31 07.25260
 2018-Dec-06 05:00 A   12 45 31.931296 +23 31 07.25995
 2018-Dec-06 05:01     12 45 31.949495 +23 31 07.26732
 2018-Dec-06 05:02     12 45 31.967694 +23 31 07.27471
 2018-Dec-06 05:03     12 45 31.985894 +23 31 07.28211
 2018-Dec-06 05:04     12 45 32.004094 +23 31 07.28953
 2018-Dec-06 05:05     12 45 32.022294 +23 31 07.29695
 2018-Dec-06 05:06     12 45 32.040495 +23 31 07.30440
 2018-Dec-06 05:07     12 45 32.058695 +23 31 07.31186
 2018-Dec-06 05:08     12 45 32.076896 +23 31 07.31933
 2018-Dec-06 05:09     12 45 32.095098 +23 31 07.32682
 2018-Dec-06 05:10     12 45 32.113299 +23 31 07.33432
 2018-Dec-06 05:11     12 45 32.131501 +23 31 07.34184
 2018-Dec-06 05:12     12 45 32.149703 +23 31 07.34937
 2018-Dec-06 05:13     12 45 32.167906 +23 31 07.35691
 2018-Dec-06 05:14     12 45 32.186108 +23 31 07.36447
 2018-Dec-06 05:15     12 45 32.204311 +23 31 07.37205
 2018-Dec-06 05:16     12 45 32.222514 +23 31 07.37964
 2018-Dec-06 05:17     12 45 32.240717 +23 31 07.38724
 2018-Dec-06 05:18     12 45 32.258920 +23 31 07.39486
 2018-Dec-06 05:19     12 45 32.277124 +23 31 07.40250
 2018-Dec-06 05:20     12 45 32.295327 +23 31 07.41015
 2018-Dec-06 05:21     12 45 32.313531 +23 31 07.41781
 2018-Dec-06 05:22     12 45 32.331735 +23 31 07.42549
 2018-Dec-06 05:23     12 45 32.349939 +23 31 07.43318
 2018-Dec-06 05:24     12 45 32.368143 +23 31 07.44089
 2018-Dec-06 05:25     12 45 32.386347 +23 31 07.44861
 2018-Dec-06 05:26     12 45 32.404552 +23 31 07.45635
 2018-Dec-06 05:27     12 45 32.422756 +23 31 07.46410
 2018-Dec-06 05:28     12 45 32.440961 +23 31 07.47187
 2018-Dec-06 05:29     12 45 32.459165 +23 31 07.47965
 2018-Dec-06 05:30     12 45 32.477370 +23 31 07.48745
 2018-Dec-06 05:31     12 45 32.495575 +23 31 07.49526
 2018-Dec-06 05:32     12 45 32.513779 +23 31 07.50308
 2018-Dec-06 05:33     12 45 32.531984 +23 31 07.51092
 2018-Dec-06 05:34     12 45 32.550189 +23 31 07.51878
 2018-Dec-06 05:35     12 45 32.568394 +23 31 07.52665
 2018-Dec-06 05:36     12 45 32.586599 +23 31 07.53454
 2018-Dec-06 05:37     12 45 32.604804 +23 31 07.54244
 2018-Dec-06 05:38     12 45 32.623008 +23 31 07.55035
 2018-Dec-06 05:39     12 45 32.641213 +23 31 07.55828
 2018-Dec-06 05:40     12 45 32.659418 +23 31 07.56623
 2018-Dec-06 05:41     12 45 32.677623 +23 31 07.57419
 2018-Dec-06 05:42     12 45 32.695828 +23 31 07.58217
 2018-Dec-06 05:43     12 45 32.714032 +23 31 07.59016
 2018-Dec-06 05:44     12 45 32.732237 +23 31 07.59816
 2018-Dec-06 05:45     12 45 32.750441 +23 31 07.60618
 2018-Dec-06 05:46     12 45 32.768646 +23 31 07.61422
 2018-Dec-06 05:47     12 45 32.786850 +23 31 07.62227
 2018-Dec-06 05:48     12 45 32.805054 +23 31 07.63033
 2018-Dec-06 05:49     12 45 32.823258 +23 31 07.63841
 2018-Dec-06 05:50     12 45 32.841462 +23 31 07.64651
 2018-Dec-06 05:51     12 45 32.859666 +23 31 07.65462
 2018-Dec-06 05:52     12 45 32.877870 +23 31 07.66274
 2018-Dec-06 05:53     12 45 32.896073 +23 31 07.67088
 2018-Dec-06 05:54     12 45 32.914277 +23 31 07.67904
 2018-Dec-06 05:55     12 45 32.932480 +23 31 07.68720
 2018-Dec-06 05:56     12 45 32.950683 +23 31 07.69539
